{"type": "FeatureCollection", "features": [ {"type": "Feature", "properties": {"norad_id": 37437, "name": "FENGYUN 1C DEB", "group": "fengyun-1c-debris", "lat": 11.999074761583566, "lon": 160.13915789679368, "alt_km": 868.8902652920615, "timestamp": "2025-12-12T09:49:09.021039+00:00", "meta": {"OBJECT_NAME": "FENGYUN 1C DEB", "OBJECT_ID": "1999-025EHF", "EPOCH": "2025-11-30T18:36:25.322976", "MEAN_MOTION": 14.18810149, "ECCENTRICITY": 0.0113368, "INCLINATION": 98.5859, "RA_OF_ASC_NODE": 327.0314, "ARG_OF_PERICENTER": 82.7284, "MEAN_ANOMALY": 94.5607, "EPHEMERIS_TYPE": 0, "CLASSIFICATION_TYPE": "U", "NORAD_CAT_ID": 37437, "ELEMENT_SET_NO": 999, "REV_AT_EPOCH": 63821, "BSTAR": 0.0004989187, "MEAN_MOTION_DOT": 1.064e-05, "MEAN_MOTION_DDOT": 0}, "tle": {"line1": "1 37437U 99025EHF 25334.77529309  .00001064  00000+0  49892-3 0  9993", "line2": "2 37437  98.5859 327.0314 0113368  82.7284  94.5607 14.18810149638211"}}, "geometry": {"type": "Point", "coordinates": [160.13915789679368, 11.999074761583566]}}, {"type": "Feature", "properties": {"norad_id": 37438, "name": "FENGYUN 1C DEB", "group": "fengyun-1c-debris", "lat": -9.4288148906095, "lon": -156.0626824262478, "alt_km": 827.1389232258634, "timestamp": "2025-12-12T09:49:09.021051+00:00", "meta": {"OBJECT_NAME": "FENGYUN 1C DEB", "OBJECT_ID": "1999-025EHG", "EPOCH": "2025-12-09T07:58:39.452448", "MEAN_MOTION": 14.1550467, "ECCENTRICITY": 0.00287361, "INCLINATION": 98.7401, "RA_OF_ASC_NODE": 22.3854, "ARG_OF_PERICENTER": 230.9593, "MEAN_ANOMALY": 128.9023, "EPHEMERIS_TYPE": 0, "CLASSIFICATION_TYPE": "U", "NORAD_CAT_ID": 37438, "ELEMENT_SET_NO": 999, "REV_AT_EPOCH": 60087, "BSTAR": 0.001051415, "MEAN_MOTION_DOT": 2.019e-05, "MEAN_MOTION_DDOT": 0}, "tle": {"line1": "1 37438U 99025EHG 25343.33240107  .00002019  00000+0  10514-2 0  9991", "line2": "2 37438  98.7401  22.3854 0028736 230.9593 128.9023 14.15504670600876"}}, "geometry": {"type": "Point", "coordinates": [-156.0626824262478, -9.4288148906095]}}, {"type": "Feature", "properties": {"norad_id": 37441, "name": "FENGYUN 1C DEB", "group": "fengyun-1c-debris", "lat": -79.74133058101677, "lon": -49.57677286306318, "alt_km": 1544.08233872042, "timestamp": "2025-12-12T09:49:09.021061+00:00", "meta": {"OBJECT_NAME": "FENGYUN 1C DEB", "OBJECT_ID": "1999-025EHK", "EPOCH": "2025-12-10T19:56:27.247488", "MEAN_MOTION": 13.14218168, "ECCENTRICITY": 0.05083236, "INCLINATION": 99.1462, "RA_OF_ASC_NODE": 191.9401, "ARG_OF_PERICENTER": 59.3859, "MEAN_ANOMALY": 305.6377, "EPHEMERIS_TYPE": 0, "CLASSIFICATION_TYPE": "U", "NORAD_CAT_ID": 37441, "ELEMENT_SET_NO": 999, "REV_AT_EPOCH": 82147, "BSTAR": 0.0021984754, "MEAN_MOTION_DOT": 1.529e-05, "MEAN_MOTION_DDOT": 0}, "tle": {"line1": "1 37441U 99025EHK 25344.83087092  .00001529  00000+0  21985-2 0  9992", "line2": "2 37441  99.1462 191.9401 0508323  59.3859 305.6377 13.14218168821475"}}, "geometry": {"type": "Point", "coordinates": [-49.57677286306318, -79.74133058101677]}}, {"type": "Feature", "properties": {"norad_id": 37444, "name": "FENGYUN 1C DEB", "group": "fengyun-1c-debris", "lat": -64.88862809131042, "lon": 86.86344558212214, "alt_km": 640.2607557029432, "timestamp": "2025-12-12T09:49:09.021072+00:00", "meta": {"OBJECT_NAME": "FENGYUN 1C DEB", "OBJECT_ID": "1999-025EHN", "EPOCH": "2025-12-10T11:40:45.779808", "MEAN_MOTION": 14.48011697, "ECCENTRICITY": 0.0245044, "INCLINATION": 99.0829, "RA_OF_ASC_NODE": 64.839, "ARG_OF_PERICENTER": 355.8296, "MEAN_ANOMALY": 4.0849, "EPHEMERIS_TYPE": 0, "CLASSIFICATION_TYPE": "U", "NORAD_CAT_ID": 37444, "ELEMENT_SET_NO": 999, "REV_AT_EPOCH": 65118, "BSTAR": 0.00083100309, "MEAN_MOTION_DOT": 4.451e-05, "MEAN_MOTION_DDOT": 0}, "tle": {"line1": "1 37444U 99025EHN 25344.48664097  .00004451  00000+0  83100-3 0  9997", "line2": "2 37444  99.0829  64.8390 0245044 355.8296   4.0849 14.48011697651185"}}, "geometry": {"type": "Point", "coordinates": [86.86344558212214, -64.88862809131042]}}, {"type": "Feature", "properties": {"norad_id": 37448, "name": "FENGYUN 1C DEB", "group": "fengyun-1c-debris", "lat": -61.70548124376618, "lon": -146.74474698554374, "alt_km": 1170.159272748292, "timestamp": "2025-12-12T09:49:09.021082+00:00", "meta": {"OBJECT_NAME": "FENGYUN 1C DEB", "OBJECT_ID": "1999-025EHS", "EPOCH": "2025-12-06T10:42:28.876320", "MEAN_MOTION": 13.87045916, "ECCENTRICITY": 0.03071035, "INCLINATION": 99.3213, "RA_OF_ASC_NODE": 45.0657, "ARG_OF_PERICENTER": 75.6085, "MEAN_ANOMALY": 287.8947, "EPHEMERIS_TYPE": 0, "CLASSIFICATION_TYPE": "U", "NORAD_CAT_ID": 37448, "ELEMENT_SET_NO": 999, "REV_AT_EPOCH": 62288, "BSTAR": 0.0025408107, "MEAN_MOTION_DOT": 4.28e-05, "MEAN_MOTION_DDOT": 0}, "tle": {"line1": "1 37448U 99025EHS 25340.44616755  .00004280  00000+0  25408-2 0  9997", "line2": "2 37448  99.3213  45.0657 0307103  75.6085 287.8947 13.87045916622882"}}, "geometry": {"type": "Point", "coordinates": [-146.74474698554374, -61.70548124376618]}}, {"type": "Feature", "properties": {"norad_id": 37460, "name": "FENGYUN 1C DEB", "group": "fengyun-1c-debris", "lat": 80.65959645416095, "lon": 98.6545959565813, "alt_km": 761.2904776565192, "timestamp": "2025-12-12T09:49:09.021092+00:00", "meta": {"OBJECT_NAME": "FENGYUN 1C DEB", "OBJECT_ID": "1999-025EJE", "EPOCH": "2025-12-08T10:53:05.307360", "MEAN_MOTION": 14.47840336, "ECCENTRICITY": 0.00565903, "INCLINATION": 98.3779, "RA_OF_ASC_NODE": 158.3686, "ARG_OF_PERICENTER": 303.3518, "MEAN_ANOMALY": 56.2265, "EPHEMERIS_TYPE": 0, "CLASSIFICATION_TYPE": "U", "NORAD_CAT_ID": 37460, "ELEMENT_SET_NO": 999, "REV_AT_EPOCH": 82427, "BSTAR": 0.0027403859, "MEAN_MOTION_DOT": 0.00010316, "MEAN_MOTION_DDOT": 0}, "tle": {"line1": "1 37460U 99025EJE 25342.45353365  .00010316  00000+0  27404-2 0  9994", "line2": "2 37460  98.3779 158.3686 0056590 303.3518  56.2265 14.47840336824279"}}, "geometry": {"type": "Point", "coordinates": [98.6545959565813, 80.65959645416095]}}, {"type": "Feature", "properties": {"norad_id": 37461, "name": "FENGYUN 1C DEB", "group": "fengyun-1c-debris", "lat": 26.34558709478101, "lon": -130.2992951188194, "alt_km": 1052.7191283776856, "timestamp": "2025-12-12T09:49:09.021102+00:00", "meta": {"OBJECT_NAME": "FENGYUN 1C DEB", "OBJECT_ID": "1999-025EJF", "EPOCH": "2025-11-27T22:25:56.122176", "MEAN_MOTION": 12.7907076, "ECCENTRICITY": 0.0667413, "INCLINATION": 99.8664, "RA_OF_ASC_NODE": 221.8984, "ARG_OF_PERICENTER": 359.7811, "MEAN_ANOMALY": 0.291, "EPHEMERIS_TYPE": 0, "CLASSIFICATION_TYPE": "U", "NORAD_CAT_ID": 37461, "ELEMENT_SET_NO": 999, "REV_AT_EPOCH": 51845, "BSTAR": 0.0053613, "MEAN_MOTION_DOT": 3.048e-05, "MEAN_MOTION_DDOT": 0}, "tle": {"line1": "1 37461U 99025EJF 25331.93467734  .00003048  00000+0  53613-2 0  9997", "line2": "2 37461  99.8664 221.8984 0667413 359.7811   0.2910 12.79070760518454"}}, "geometry": {"type": "Point", "coordinates": [-130.2992951188194, 26.34558709478101]}}, {"type": "Feature", "properties": {"norad_id": 37464, "name": "FENGYUN 1C DEB", "group": "fengyun-1c-debris", "lat": 39.86282393693468, "lon": -100.45271006202533, "alt_km": 990.6966399240282, "timestamp": "2025-12-12T09:49:09.021113+00:00", "meta": {"OBJECT_NAME": "FENGYUN 1C DEB", "OBJECT_ID": "1999-025EJJ", "EPOCH": "2025-12-06T12:46:34.874112", "MEAN_MOTION": 13.46848154, "ECCENTRICITY": 0.0451626, "INCLINATION": 102.7074, "RA_OF_ASC_NODE": 262.9496, "ARG_OF_PERICENTER": 131.0925, "MEAN_ANOMALY": 233.0125, "EPHEMERIS_TYPE": 0, "CLASSIFICATION_TYPE": "U", "NORAD_CAT_ID": 37464, "ELEMENT_SET_NO": 999, "REV_AT_EPOCH": 60838, "BSTAR": 0.0030977, "MEAN_MOTION_DOT": 3.437e-05, "MEAN_MOTION_DDOT": 0}, "tle": {"line1": "1 37464U 99025EJJ 25340.53234808  .00003437  00000+0  30977-2 0  9990", "line2": "2 37464 102.7074 262.9496 0451626 131.0925 233.0125 13.46848154608385"}}, "geometry": {"type": "Point", "coordinates": [-100.45271006202533, 39.86282393693468]}}, {"type": "Feature", "properties": {"norad_id": 37470, "name": "FENGYUN 1C DEB", "group": "fengyun-1c-debris", "lat": -27.262996692197266, "lon": -54.73617149781918, "alt_km": 568.4358824238525, "timestamp": "2025-12-12T09:49:09.021124+00:00", "meta": {"OBJECT_NAME": "FENGYUN 1C DEB", "OBJECT_ID": "1999-025EJQ", "EPOCH": "2025-12-02T08:43:26.114016", "MEAN_MOTION": 14.99042865, "ECCENTRICITY": 0.00053598, "INCLINATION": 98.6674, "RA_OF_ASC_NODE": 118.5972, "ARG_OF_PERICENTER": 185.6749, "MEAN_ANOMALY": 174.4411, "EPHEMERIS_TYPE": 0, "CLASSIFICATION_TYPE": "U", "NORAD_CAT_ID": 37470, "ELEMENT_SET_NO": 999, "REV_AT_EPOCH": 65306, "BSTAR": 0.0063565181, "MEAN_MOTION_DOT": 0.00077884, "MEAN_MOTION_DDOT": 0}, "tle": {"line1": "1 37470U 99025EJQ 25336.36349669  .00077884  00000+0  63565-2 0  9991", "line2": "2 37470  98.6674 118.5972 0005359 185.6749 174.4411 14.99042865653068"}}, "geometry": {"type": "Point", "coordinates": [-54.73617149781918, -27.262996692197266]}}, {"type": "Feature", "properties": {"norad_id": 37474, "name": "FENGYUN 1C DEB", "group": "fengyun-1c-debris", "lat": -18.38789265846758, "lon": 8.44175700470638, "alt_km": 606.0709017267209, "timestamp": "2025-12-12T09:49:09.021134+00:00", "meta": {"OBJECT_NAME": "FENGYUN 1C DEB", "OBJECT_ID": "1999-025EJU", "EPOCH": "2025-12-10T19:29:20.252544", "MEAN_MOTION": 14.75064222, "ECCENTRICITY": 0.01320263, "INCLINATION": 99.1657, "RA_OF_ASC_NODE": 189.7112, "ARG_OF_PERICENTER": 140.9699, "MEAN_ANOMALY": 220.1124, "EPHEMERIS_TYPE": 0, "CLASSIFICATION_TYPE": "U", "NORAD_CAT_ID": 37474, "ELEMENT_SET_NO": 999, "REV_AT_EPOCH": 62347, "BSTAR": 0.0018192064, "MEAN_MOTION_DOT": 0.00014074, "MEAN_MOTION_DDOT": 0}, "tle": {"line1": "1 37474U 99025EJU 25344.81203996  .00014074  00000+0  18192-2 0  9994", "line2": "2 37474  99.1657 189.7112 0132026 140.9699 220.1124 14.75064222623472"}}, "geometry": {"type": "Point", "coordinates": [8.44175700470638, -18.38789265846758]}}]}